[{"OBJECT_NAME":"STARLINK-31284","OBJECT_ID":"2024-049R","EPOCH":"2026-03-09T04:56:21.600384","MEAN_MOTION":15.27573933,"ECCENTRICITY":9.172e-5,"INCLINATION":43.0033,"RA_OF_ASC_NODE":146.134,"ARG_OF_PERICENTER":212.5513,"MEAN_ANOMALY":147.5282,"EPHEMERIS_TYPE":0,"CLASSIFICATION_TYPE":"U","NORAD_CAT_ID":59246,"ELEMENT_SET_NO":999,"REV_AT_EPOCH":11232,"BSTAR":-6.7171445e-5,"MEAN_MOTION_DOT":-2.109e-5,"MEAN_MOTION_DDOT":0},{"OBJECT_NAME":"OTTER","OBJECT_ID":"2025-009Q","EPOCH":"2026-03-09T17:21:07.902432","MEAN_MOTION":15.27809545,"ECCENTRICITY":0.00035728,"INCLINATION":97.4065,"RA_OF_ASC_NODE":151.3812,"ARG_OF_PERICENTER":310.771,"MEAN_ANOMALY":49.3219,"EPHEMERIS_TYPE":0,"CLASSIFICATION_TYPE":"U","NORAD_CAT_ID":62623,"ELEMENT_SET_NO":999,"REV_AT_EPOCH":6372,"BSTAR":0.00045151206,"MEAN_MOTION_DOT":0.00012198,"MEAN_MOTION_DDOT":0}]
