STARLINK-31284          
1 59246U 24049R   26068.20580556 -.00002109  00000+0 -67171-4 0  9997
2 59246  43.0033 146.1340 0000917 212.5513 147.5282 15.27573933112329
OTTER                   
1 62623U 25009Q   26068.72300813  .00012198  00000+0  45151-3 0  9990
2 62623  97.4065 151.3812 0003573 310.7710  49.3219 15.27809545 63722
